COMMENT,ORIGINATOR,NORAD_CAT_ID,OBJECT_NAME,OBJECT_TYPE,CLASSIFICATION_TYPE,INTLDES,EPOCH,EPOCH_MICROSECONDS,MEAN_MOTION,ECCENTRICITY,INCLINATION,RA_OF_ASC_NODE,ARG_OF_PERICENTER,MEAN_ANOMALY,EPHEMERIS_TYPE,ELEMENT_SET_NO,REV_AT_EPOCH,BSTAR,MEAN_MOTION_DOT,MEAN_MOTION_DDOT,FILE,TLE_LINE0,TLE_LINE1,TLE_LINE2,OBJECT_ID,OBJECT_NUMBER,SEMIMAJOR_AXIS,PERIOD,APOGEE,PERIGEE,DECAYED,date
GENERATED VIA SPACETRACK.ORG API,18 SPCS,48888,SPACEBEE-103,PAYLOAD,U,21059K,2023/3/8 19:13,92704,15.24699643,0.0008147,97.5804,202.8965,261.6769,98.3544,0,999,9406,0.0024162,0.00060162,0,3855077,0 SPACEBEE-103,1 48888U 21059K   23067.80110061  .00060162  00000-0  24162-2 0  9990,2 48888  97.5804 202.8965 0008147 261.6769  98.3544 15.24699643 94061,2021-059K,48888,6869.824,94.445,497.286,486.093,0,
GENERATED VIA SPACETRACK.ORG API,18 SPCS,48888,SPACEBEE-103,PAYLOAD,U,21059K,2023/3/9 22:00,170624,15.24817378,0.0008162,97.5809,204.0258,258.527,101.505,0,999,9423,0.0022431,0.00056012,0,3855951,0 SPACEBEE-103,1 48888U 21059K   23068.91674966  .00056012  00000-0  22431-2 0  9998,2 48888  97.5809 204.0258 0008162 258.5270 101.5050 15.24817378 94239,2021-059K,48888,6869.471,94.438,496.943,485.729,0,
GENERATED VIA SPACETRACK.ORG API,18 SPCS,48888,SPACEBEE-103,PAYLOAD,U,21059K,2023/3/10 4:18,430176,15.24848251,0.0008132,97.5814,204.2918,256.8921,103.1409,0,999,9427,0.0022776,0.00056934,0,3856226,0 SPACEBEE-103,1 48888U 21059K   23069.17924109  .00056934  00000-0  22776-2 0  9999,2 48888  97.5814 204.2918 0008132 256.8921 103.1409 15.24848251 94275,2021-059K,48888,6869.378,94.436,496.829,485.657,0,
GENERATED VIA SPACETRACK.ORG API,18 SPCS,48888,SPACEBEE-103,PAYLOAD,U,21059K,2023/3/10 15:19,208832,15.24889982,0.0008049,97.5816,204.757,255.6839,104.3505,0,999,9434,0.0018745,0.00046838,0,3856896,0 SPACEBEE-103,1 48888U 21059K   23069.63859038  .00046838  00000-0  18745-2 0  9991,2 48888  97.5816 204.7570 0008049 255.6839 104.3505 15.24889982 94342,2021-059K,48888,6869.253,94.433,496.647,485.589,0,
GENERATED VIA SPACETRACK.ORG API,18 SPCS,48888,SPACEBEE-103,PAYLOAD,U,21059K,2023/3/10 21:37,416896,15.24918588,0.0008074,97.5815,205.0227,255.0574,104.977,0,999,9438,0.0019681,0.00049239,0,3856975,0 SPACEBEE-103,1 48888U 21059K   23069.90106964  .00049239  00000-0  19681-2 0  9992,2 48888  97.5815 205.0227 0008074 255.0574 104.9770 15.24918588 94381,2021-059K,48888,6869.167,94.431,496.578,485.486,0,
GENERATED VIA SPACETRACK.ORG API,18 SPCS,48888,SPACEBEE-103,PAYLOAD,U,21059K,2023/3/11 8:38,247232,15.24969943,0.0008095,97.5814,205.4875,252.937,107.098,0,999,9445,0.0020338,0.00050975,0,3857521,0 SPACEBEE-103,1 48888U 21059K   23070.36039638  .00050975  00000-0  20338-2 0  9997,2 48888  97.5814 205.4875 0008095 252.9370 107.0980 15.24969943 94452,2021-059K,48888,6869.013,94.428,496.438,485.317,0,
GENERATED VIA SPACETRACK.ORG API,18 SPCS,48888,SPACEBEE-103,PAYLOAD,U,21059K,2023/3/11 8:38,247232,15.24969943,0.0008095,97.5814,205.4875,252.937,107.098,0,999,9445,0.0020338,0.00050975,0,3857581,0 SPACEBEE-103,1 48888U 21059K   23070.36039638  .00050975  00000-0  20338-2 0  9997,2 48888  97.5814 205.4875 0008095 252.9370 107.0980 15.24969943 94452,2021-059K,48888,6869.013,94.428,496.438,485.317,0,
GENERATED VIA SPACETRACK.ORG API,18 SPCS,48888,SPACEBEE-103,PAYLOAD,U,21059K,2023/3/11 21:14,102464,15.25013427,0.0008149,97.5814,206.0193,251.9222,108.1128,0,999,9453,0.0016348,0.00040959,0,3858136,0 SPACEBEE-103,1 48888U 21059K   23070.88532526  .00040959  00000-0  16348-2 0  9995,2 48888  97.5814 206.0193 0008149 251.9222 108.1128 15.25013427 94530,2021-059K,48888,6868.882,94.425,496.345,485.15,0,
GENERATED VIA SPACETRACK.ORG API,18 SPCS,48888,SPACEBEE-103,PAYLOAD,U,21059K,2023/3/11 21:14,102464,15.25013427,0.0008149,97.5814,206.0193,251.9222,108.1128,0,999,9453,0.0016348,0.00040959,0,3858534,0 SPACEBEE-103,1 48888U 21059K   23070.88532526  .00040959  00000-0  16348-2 0  9995,2 48888  97.5814 206.0193 0008149 251.9222 108.1128 15.25013427 94530,2021-059K,48888,6868.882,94.425,496.345,485.15,0,
GENERATED VIA SPACETRACK.ORG API,18 SPCS,48888,SPACEBEE-103,PAYLOAD,U,21059K,2023/3/12 19:17,957056,15.25097884,0.0008179,97.5809,206.9492,248.8651,111.1712,0,999,9467,0.0017611,0.00044261,0,3858743,0 SPACEBEE-103,1 48888U 21059K   23071.80391154  .00044261  00000-0  17611-2 0  9992,2 48888  97.5809 206.9492 0008179 248.8651 111.1712 15.25097884 94676,2021-059K,48888,6868.629,94.42,496.111,484.876,0,
GENERATED VIA SPACETRACK.ORG API,18 SPCS,48888,SPACEBEE-103,PAYLOAD,U,21059K,2023/3/12 19:17,957056,15.25097884,0.0008179,97.5809,206.9492,248.8651,111.1712,0,999,9467,0.0017611,0.00044261,0,3858922,0 SPACEBEE-103,1 48888U 21059K   23071.80391154  .00044261  00000-0  17611-2 0  9992,2 48888  97.5809 206.9492 0008179 248.8651 111.1712 15.25097884 94676,2021-059K,48888,6868.629,94.42,496.111,484.876,0,
GENERATED VIA SPACETRACK.ORG API,18 SPCS,48888,SPACEBEE-103,PAYLOAD,U,21059K,2023/3/13 14:11,497504,15.25162214,0.0008159,97.5809,207.7464,246.4542,113.5839,0,999,9479,0.0015939,0.00040106,0,3859425,0 SPACEBEE-103,1 48888U 21059K   23072.59123261  .00040106  00000-0  15939-2 0  9996,2 48888  97.5809 207.7464 0008159 246.4542 113.5839 15.25162214 94794,2021-059K,48888,6868.435,94.416,495.904,484.696,0,
GENERATED VIA SPACETRACK.ORG API,18 SPCS,48888,SPACEBEE-103,PAYLOAD,U,21059K,2023/3/14 4:21,72672,15.2520981,0.0008116,97.5813,208.3451,244.6202,115.4196,0,999,9488,0.0016328,0.00041151,0,3859926,0 SPACEBEE-103,1 48888U 21059K   23073.18170223  .00041151  00000-0  16328-2 0  9996,2 48888  97.5813 208.3451 0008116 244.6202 115.4196 15.25209810 94889,2021-059K,48888,6868.292,94.413,495.732,484.583,0,
GENERATED VIA SPACETRACK.ORG API,18 SPCS,48888,SPACEBEE-103,PAYLOAD,U,21059K,2023/3/14 7:30,868960,15.25221184,0.0008109,97.5813,208.478,244.2948,115.7453,0,999,9490,0.0016361,0.00041248,0,3860373,0 SPACEBEE-103,1 48888U 21059K   23073.31291515  .00041248  00000-0  16361-2 0  9993,2 48888  97.5813 208.4780 0008109 244.2948 115.7453 15.25221184 94900,2021-059K,48888,6868.258,94.413,495.693,484.554,0,
GENERATED VIA SPACETRACK.ORG API,18 SPCS,48888,SPACEBEE-103,PAYLOAD,U,21059K,2023/3/14 21:40,361024,15.25276249,0.0008066,97.5813,209.0761,242.1095,117.9326,0,999,9499,0.0018088,0.00045712,0,3860643,0 SPACEBEE-103,1 48888U 21059K   23073.90336066  .00045712  00000-0  18088-2 0  9997,2 48888  97.5813 209.0761 0008066 242.1095 117.9326 15.25276249 94992,2021-059K,48888,6868.093,94.409,495.498,484.418,0,
GENERATED VIA SPACETRACK.ORG API,18 SPCS,48888,SPACEBEE-103,PAYLOAD,U,21059K,2023/3/15 8:42,958656,15.25322048,0.0008059,97.5813,209.5414,241.0295,119.0135,0,999,9506,0.0019038,0.00048199,0,3861245,0 SPACEBEE-103,1 48888U 21059K   23074.36258054  .00048199  00000-0  19038-2 0  9996,2 48888  97.5813 209.5414 0008059 241.0295 119.0135 15.25322048 95063,2021-059K,48888,6867.956,94.406,495.355,484.286,0,
GENERATED VIA SPACETRACK.ORG API,18 SPCS,48888,SPACEBEE-103,PAYLOAD,U,21059K,2023/3/15 8:42,958656,15.25322048,0.0008059,97.5813,209.5414,241.0295,119.0135,0,999,9506,0.0019038,0.00048199,0,3861350,0 SPACEBEE-103,1 48888U 21059K   23074.36258054  .00048199  00000-0  19038-2 0  9996,2 48888  97.5813 209.5414 0008059 241.0295 119.0135 15.25322048 95063,2021-059K,48888,6867.956,94.406,495.355,484.286,0,
GENERATED VIA SPACETRACK.ORG API,18 SPCS,48888,SPACEBEE-103,PAYLOAD,U,21059K,2023/3/15 21:17,141760,15.25372147,0.0008078,97.5813,210.0733,239.3071,120.7371,0,999,9514,0.0017229,0.00043651,0,3861599,0 SPACEBEE-103,1 48888U 21059K   23074.88738590  .00043651  00000-0  17229-2 0  9999,2 48888  97.5813 210.0733 0008078 239.3071 120.7371 15.25372147 95142,2021-059K,48888,6867.805,94.403,495.218,484.122,0,
GENERATED VIA SPACETRACK.ORG API,18 SPCS,48888,SPACEBEE-103,PAYLOAD,U,21059K,2023/3/16 8:19,251936,15.25417636,0.0008135,97.5809,210.5386,237.7388,122.3062,0,999,9521,0.0018887,0.00047952,0,3862295,0 SPACEBEE-103,1 48888U 21059K   23075.34657699  .00047952  00000-0  18887-2 0  9990,2 48888  97.5809 210.5386 0008135 237.7388 122.3062 15.25417636 95219,2021-059K,48888,6867.669,94.4,495.12,483.947,0,
GENERATED VIA SPACETRACK.ORG API,18 SPCS,48888,SPACEBEE-103,PAYLOAD,U,21059K,2023/3/16 20:54,925120,15.25453292,0.0008111,97.5807,211.0706,236.6587,123.3874,0,999,9529,0.0013932,0.0003533,0,3862592,0 SPACEBEE-103,1 48888U 21059K   23075.87135330  .00035330  00000-0  13932-2 0  9994,2 48888  97.5807 211.0706 0008111 236.6587 123.3874 15.25453292 95290,2021-059K,48888,6867.562,94.398,494.997,483.856,0,
GENERATED VIA SPACETRACK.ORG API,18 SPCS,48888,SPACEBEE-103,PAYLOAD,U,21059K,2023/3/16 22:29,432480,15.25457708,0.0008118,97.5805,211.1368,236.0138,124.0329,0,999,9530,0.001384,0.000351,0,3862516,0 SPACEBEE-103,1 48888U 21059K   23075.93694945  .00035100  00000-0  13840-2 0  9996,2 48888  97.5805 211.1368 0008118 236.0138 124.0329 15.25457708 95307,2021-059K,48888,6867.548,94.398,494.988,483.838,0,
GENERATED VIA SPACETRACK.ORG API,18 SPCS,48888,SPACEBEE-103,PAYLOAD,U,21059K,2023/3/17 7:55,112032,15.25484232,0.0008146,97.5805,211.5356,234.9184,125.129,0,999,9536,0.0013082,0.00033192,0,3863278,0 SPACEBEE-103,1 48888U 21059K   23076.33052213  .00033192  00000-0  13082-2 0  9994,2 48888  97.5805 211.5356 0008146 234.9184 125.1290 15.25484232 95364,2021-059K,48888,6867.469,94.396,494.928,483.74,0,
GENERATED VIA SPACETRACK.ORG API,18 SPCS,48888,SPACEBEE-103,PAYLOAD,U,21059K,2023/3/18 4:23,757152,15.2554692,0.0008133,97.5812,212.4,232.117,127.9332,0,999,9549,0.0014148,0.00035983,0,3863755,0 SPACEBEE-103,1 48888U 21059K   23077.18323793  .00035983  00000-0  14148-2 0  9996,2 48888  97.5812 212.4000 0008133 232.1170 127.9332 15.25546920 95493,2021-059K,48888,6867.281,94.392,494.731,483.56,0,
